{"type": "FeatureCollection", "features": [ {"type": "Feature", "properties": {"norad_id": 66939, "name": "STARLINK-36154", "group": "last-30-days", "lat": 3.8243971324644237, "lon": 160.70263422578063, "alt_km": 396.7120833116305, "timestamp": "2025-12-26T03:50:10.809233+00:00", "meta": {"OBJECT_NAME": "STARLINK-36154", "OBJECT_ID": "2025-286Q", "EPOCH": "2025-12-25T20:00:01.999008", "MEAN_MOTION": 15.58343931, "ECCENTRICITY": 0.0001536, "INCLINATION": 53.1592, "RA_OF_ASC_NODE": 345.1566, "ARG_OF_PERICENTER": 94.9024, "MEAN_ANOMALY": 48.365, "EPHEMERIS_TYPE": 0, "CLASSIFICATION_TYPE": "U", "NORAD_CAT_ID": 66939, "ELEMENT_SET_NO": 999, "REV_AT_EPOCH": 409, "BSTAR": -0.028916, "MEAN_MOTION_DOT": -0.01966254, "MEAN_MOTION_DDOT": 0}, "tle": {"line1": "1 66939U 25286Q   25359.83335647 -.01966254  00000+0 -28916-1 0  9990", "line2": "2 66939  53.1592 345.1566 0001536  94.9024  48.3650 15.58343931  4094"}}, "geometry": {"type": "Point", "coordinates": [160.70263422578063, 3.8243971324644237]}}, {"type": "Feature", "properties": {"norad_id": 66940, "name": "STARLINK-36121", "group": "last-30-days", "lat": 2.2894491999303863, "lon": 161.8535618544738, "alt_km": 397.1582052782369, "timestamp": "2025-12-26T03:50:10.809242+00:00", "meta": {"OBJECT_NAME": "STARLINK-36121", "OBJECT_ID": "2025-286R", "EPOCH": "2025-12-25T20:00:01.999008", "MEAN_MOTION": 15.58348441, "ECCENTRICITY": 0.000148, "INCLINATION": 53.1593, "RA_OF_ASC_NODE": 345.1524, "ARG_OF_PERICENTER": 82.814, "MEAN_ANOMALY": 62.3723, "EPHEMERIS_TYPE": 0, "CLASSIFICATION_TYPE": "U", "NORAD_CAT_ID": 66940, "ELEMENT_SET_NO": 999, "REV_AT_EPOCH": 409, "BSTAR": -0.029061, "MEAN_MOTION_DOT": -0.01975123, "MEAN_MOTION_DDOT": 0}, "tle": {"line1": "1 66940U 25286R   25359.83335647 -.01975123  00000+0 -29061-1 0  9999", "line2": "2 66940  53.1593 345.1524 0001480  82.8140  62.3723 15.58348441  4092"}}, "geometry": {"type": "Point", "coordinates": [161.8535618544738, 2.2894491999303863]}}, {"type": "Feature", "properties": {"norad_id": 66941, "name": "STARLINK-36088", "group": "last-30-days", "lat": -13.837103275329317, "lon": 174.17164459767417, "alt_km": 393.9162510427186, "timestamp": "2025-12-26T03:50:10.809252+00:00", "meta": {"OBJECT_NAME": "STARLINK-36088", "OBJECT_ID": "2025-286S", "EPOCH": "2025-12-25T20:00:01.999008", "MEAN_MOTION": 15.60206837, "ECCENTRICITY": 0.0001515, "INCLINATION": 53.1591, "RA_OF_ASC_NODE": 345.1153, "ARG_OF_PERICENTER": 86.6319, "MEAN_ANOMALY": 76.6079, "EPHEMERIS_TYPE": 0, "CLASSIFICATION_TYPE": "U", "NORAD_CAT_ID": 66941, "ELEMENT_SET_NO": 999, "REV_AT_EPOCH": 409, "BSTAR": -0.026578, "MEAN_MOTION_DOT": -0.01944298, "MEAN_MOTION_DDOT": 0}, "tle": {"line1": "1 66941U 25286S   25359.83335647 -.01944298  00000+0 -26578-1 0  9999", "line2": "2 66941  53.1591 345.1153 0001515  86.6319  76.6079 15.60206837  4095"}}, "geometry": {"type": "Point", "coordinates": [174.17164459767417, -13.837103275329317]}}, {"type": "Feature", "properties": {"norad_id": 66942, "name": "STARLINK-36100", "group": "last-30-days", "lat": 0.7558697208210996, "lon": 163.00087433395456, "alt_km": 397.3514615459635, "timestamp": "2025-12-26T03:50:10.809263+00:00", "meta": {"OBJECT_NAME": "STARLINK-36100", "OBJECT_ID": "2025-286T", "EPOCH": "2025-12-25T20:00:01.999008", "MEAN_MOTION": 15.58351397, "ECCENTRICITY": 0.0001455, "INCLINATION": 53.1592, "RA_OF_ASC_NODE": 345.1488, "ARG_OF_PERICENTER": 85.9108, "MEAN_ANOMALY": 61.1913, "EPHEMERIS_TYPE": 0, "CLASSIFICATION_TYPE": "U", "NORAD_CAT_ID": 66942, "ELEMENT_SET_NO": 999, "REV_AT_EPOCH": 402, "BSTAR": -0.029137, "MEAN_MOTION_DOT": -0.01979833, "MEAN_MOTION_DDOT": 0}, "tle": {"line1": "1 66942U 25286T   25359.83335647 -.01979833  00000+0 -29137-1 0  9997", "line2": "2 66942  53.1592 345.1488 0001455  85.9108  61.1913 15.58351397  4027"}}, "geometry": {"type": "Point", "coordinates": [163.00087433395456, 0.7558697208210996]}}, {"type": "Feature", "properties": {"norad_id": 66943, "name": "STARLINK-36109", "group": "last-30-days", "lat": -0.7780060583321734, "lon": 164.1468795149235, "alt_km": 397.5569808655855, "timestamp": "2025-12-26T03:50:10.809275+00:00", "meta": {"OBJECT_NAME": "STARLINK-36109", "OBJECT_ID": "2025-286U", "EPOCH": "2025-12-25T20:00:01.999008", "MEAN_MOTION": 15.58349946, "ECCENTRICITY": 0.0001435, "INCLINATION": 53.1591, "RA_OF_ASC_NODE": 345.1447, "ARG_OF_PERICENTER": 87.7364, "MEAN_ANOMALY": 61.2834, "EPHEMERIS_TYPE": 0, "CLASSIFICATION_TYPE": "U", "NORAD_CAT_ID": 66943, "ELEMENT_SET_NO": 999, "REV_AT_EPOCH": 402, "BSTAR": -0.029101, "MEAN_MOTION_DOT": -0.01977575, "MEAN_MOTION_DDOT": 0}, "tle": {"line1": "1 66943U 25286U   25359.83335647 -.01977575  00000+0 -29101-1 0  9990", "line2": "2 66943  53.1591 345.1447 0001435  87.7364  61.2834 15.58349946  4024"}}, "geometry": {"type": "Point", "coordinates": [164.1468795149235, -0.7780060583321734]}}, {"type": "Feature", "properties": {"norad_id": 66944, "name": "STARLINK-36112", "group": "last-30-days", "lat": -2.309502636676349, "lon": 165.29147743393224, "alt_km": 397.7367385345424, "timestamp": "2025-12-26T03:50:10.809287+00:00", "meta": {"OBJECT_NAME": "STARLINK-36112", "OBJECT_ID": "2025-286V", "EPOCH": "2025-12-25T20:00:01.999008", "MEAN_MOTION": 15.58346956, "ECCENTRICITY": 0.0001392, "INCLINATION": 53.159, "RA_OF_ASC_NODE": 345.1399, "ARG_OF_PERICENTER": 90.6233, "MEAN_ANOMALY": 60.3119, "EPHEMERIS_TYPE": 0, "CLASSIFICATION_TYPE": "U", "NORAD_CAT_ID": 66944, "ELEMENT_SET_NO": 999, "REV_AT_EPOCH": 409, "BSTAR": -0.029, "MEAN_MOTION_DOT": -0.01971339, "MEAN_MOTION_DDOT": 0}, "tle": {"line1": "1 66944U 25286V   25359.83335647 -.01971339  00000+0 -29000-1 0  9991", "line2": "2 66944  53.1590 345.1399 0001392  90.6233  60.3119 15.58346956  4091"}}, "geometry": {"type": "Point", "coordinates": [165.29147743393224, -2.309502636676349]}}, {"type": "Feature", "properties": {"norad_id": 66945, "name": "STARLINK-36110", "group": "last-30-days", "lat": -3.842657617604268, "lon": 166.44101350978153, "alt_km": 397.99261456509794, "timestamp": "2025-12-26T03:50:10.809297+00:00", "meta": {"OBJECT_NAME": "STARLINK-36110", "OBJECT_ID": "2025-286W", "EPOCH": "2025-12-25T20:00:01.999008", "MEAN_MOTION": 15.58341951, "ECCENTRICITY": 0.0001451, "INCLINATION": 53.159, "RA_OF_ASC_NODE": 345.1356, "ARG_OF_PERICENTER": 88.5466, "MEAN_ANOMALY": 64.3082, "EPHEMERIS_TYPE": 0, "CLASSIFICATION_TYPE": "U", "NORAD_CAT_ID": 66945, "ELEMENT_SET_NO": 999, "REV_AT_EPOCH": 409, "BSTAR": -0.028887, "MEAN_MOTION_DOT": -0.01964307, "MEAN_MOTION_DDOT": 0}, "tle": {"line1": "1 66945U 25286W   25359.83335647 -.01964307  00000+0 -28887-1 0  9991", "line2": "2 66945  53.1590 345.1356 0001451  88.5466  64.3082 15.58341951  4098"}}, "geometry": {"type": "Point", "coordinates": [166.44101350978153, -3.842657617604268]}}, {"type": "Feature", "properties": {"norad_id": 66946, "name": "STARLINK-36115", "group": "last-30-days", "lat": -5.372853763852794, "lon": 167.59405536003254, "alt_km": 398.24519556536234, "timestamp": "2025-12-26T03:50:10.809307+00:00", "meta": {"OBJECT_NAME": "STARLINK-36115", "OBJECT_ID": "2025-286X", "EPOCH": "2025-12-25T20:00:01.999008", "MEAN_MOTION": 15.58344143, "ECCENTRICITY": 0.0001381, "INCLINATION": 53.1588, "RA_OF_ASC_NODE": 345.1317, "ARG_OF_PERICENTER": 85.5674, "MEAN_ANOMALY": 69.2025, "EPHEMERIS_TYPE": 0, "CLASSIFICATION_TYPE": "U", "NORAD_CAT_ID": 66946, "ELEMENT_SET_NO": 999, "REV_AT_EPOCH": 409, "BSTAR": -0.028906, "MEAN_MOTION_DOT": -0.01965526, "MEAN_MOTION_DDOT": 0}, "tle": {"line1": "1 66946U 25286X   25359.83335647 -.01965526  00000+0 -28906-1 0  9998", "line2": "2 66946  53.1588 345.1317 0001381  85.5674  69.2025 15.58344143  4090"}}, "geometry": {"type": "Point", "coordinates": [167.59405536003254, -5.372853763852794]}}, {"type": "Feature", "properties": {"norad_id": 66947, "name": "STARLINK-36089", "group": "last-30-days", "lat": -8.427307277262528, "lon": 169.9192155974355, "alt_km": 398.63556688147946, "timestamp": "2025-12-26T03:50:10.809317+00:00", "meta": {"OBJECT_NAME": "STARLINK-36089", "OBJECT_ID": "2025-286Y", "EPOCH": "2025-12-25T20:00:01.999008", "MEAN_MOTION": 15.58341934, "ECCENTRICITY": 0.0001428, "INCLINATION": 53.1591, "RA_OF_ASC_NODE": 345.1229, "ARG_OF_PERICENTER": 88.201, "MEAN_ANOMALY": 70.4042, "EPHEMERIS_TYPE": 0, "CLASSIFICATION_TYPE": "U", "NORAD_CAT_ID": 66947, "ELEMENT_SET_NO": 999, "REV_AT_EPOCH": 409, "BSTAR": -0.028874, "MEAN_MOTION_DOT": -0.01963494, "MEAN_MOTION_DDOT": 0}, "tle": {"line1": "1 66947U 25286Y   25359.83335647 -.01963494  00000+0 -28874-1 0  9995", "line2": "2 66947  53.1591 345.1229 0001428  88.2010  70.4042 15.58341934  4091"}}, "geometry": {"type": "Point", "coordinates": [169.9192155974355, -8.427307277262528]}}, {"type": "Feature", "properties": {"norad_id": 66948, "name": "STARLINK-36116", "group": "last-30-days", "lat": -6.901387959872303, "lon": 168.7527838830949, "alt_km": 398.4688296114773, "timestamp": "2025-12-26T03:50:10.809340+00:00", "meta": {"OBJECT_NAME": "STARLINK-36116", "OBJECT_ID": "2025-286Z", "EPOCH": "2025-12-25T20:00:01.999008", "MEAN_MOTION": 15.58343725, "ECCENTRICITY": 0.0001381, "INCLINATION": 53.159, "RA_OF_ASC_NODE": 345.1273, "ARG_OF_PERICENTER": 84.9018, "MEAN_ANOMALY": 71.7857, "EPHEMERIS_TYPE": 0, "CLASSIFICATION_TYPE": "U", "NORAD_CAT_ID": 66948, "ELEMENT_SET_NO": 999, "REV_AT_EPOCH": 409, "BSTAR": -0.02891, "MEAN_MOTION_DOT": -0.01965735, "MEAN_MOTION_DDOT": 0}, "tle": {"line1": "1 66948U 25286Z   25359.83335647 -.01965735  00000+0 -28910-1 0  9997", "line2": "2 66948  53.1590 345.1273 0001381  84.9018  71.7857 15.58343725  4097"}}, "geometry": {"type": "Point", "coordinates": [168.7527838830949, -6.901387959872303]}}]}